{
    "links": {
        "self": "http://www.neowsapp.com/rest/v1/neo/3331848?api_key=iIulBulltgU6a56xZRHN4H3l9WmuAYTsLGpBGhQ2"
    },
    "id": "3331848",
    "neo_reference_id": "3331848",
    "name": "(2006 JO)",
    "designation": "2006 JO",
    "nasa_jpl_url": "http://ssd.jpl.nasa.gov/sbdb.cgi?sstr=3331848",
    "absolute_magnitude_h": 25.1,
    "estimated_diameter": {
        "kilometers": {
            "estimated_diameter_min": 0.0253837029,
            "estimated_diameter_max": 0.0567596853
        },
        "meters": {
            "estimated_diameter_min": 25.3837029364,
            "estimated_diameter_max": 56.7596852866
        },
        "miles": {
            "estimated_diameter_min": 0.0157726969,
            "estimated_diameter_max": 0.0352688224
        },
        "feet": {
            "estimated_diameter_min": 83.279867942,
            "estimated_diameter_max": 186.2194458756
        }
    },
    "is_potentially_hazardous_asteroid": false,
    "close_approach_data": [
        {
            "close_approach_date": "2006-05-06",
            "close_approach_date_full": "2006-May-06 11:17",
            "epoch_date_close_approach": 1146914220000,
            "relative_velocity": {
                "kilometers_per_second": "17.1697307039",
                "kilometers_per_hour": "61811.0305338672",
                "miles_per_hour": "38406.9706114465"
            },
            "miss_distance": {
                "astronomical": "0.0122646732",
                "lunar": "4.7709578748",
                "kilometers": "1834768.986966084",
                "miles": "1140072.5826325992"
            },
            "orbiting_body": "Earth"
        },
        {
            "close_approach_date": "2026-05-08",
            "close_approach_date_full": "2026-May-08 03:02",
            "epoch_date_close_approach": 1778209320000,
            "relative_velocity": {
                "kilometers_per_second": "6.5374339497",
                "kilometers_per_hour": "23534.7622187821",
                "miles_per_hour": "14623.5860019982"
            },
            "miss_distance": {
                "astronomical": "1.9884411035",
                "lunar": "773.5035892615",
                "kilometers": "297466553.704049545",
                "miles": "184837145.459371921"
            },
            "orbiting_body": "Juptr"
        }
    ],
    "orbital_data": {
        "orbit_id": "7",
        "orbit_determination_date": "2017-04-06 09:08:41",
        "first_observation_date": "2006-05-02",
        "last_observation_date": "2006-05-03",
        "data_arc_in_days": 1,
        "observations_used": 32,
        "orbit_uncertainty": "8",
        "minimum_orbit_intersection": ".0121377",
        "jupiter_tisserand_invariant": "3.181",
        "epoch_osculation": "2453858.5",
        "eccentricity": ".6689995925063346",
        "semi_major_axis": "2.380380690833076",
        "inclination": "8.252347688546859",
        "ascending_node_longitude": "41.30153370194324",
        "orbital_period": "1341.430124037902",
        "perihelion_distance": ".7879069786558011",
        "perihelion_argument": "248.0470579312102",
        "aphelion_distance": "3.972854403010351",
        "perihelion_time": "2453903.616885264736",
        "mean_anomaly": "347.8919681284524",
        "mean_motion": ".26837029640899",
        "equinox": "J2000",
        "orbit_class": {
            "orbit_class_type": "APO",
            "orbit_class_description": "Near-Earth asteroid orbits which cross the Earth’s orbit similar to that of 1862 Apollo",
            "orbit_class_range": "a (semi-major axis) > 1.0 AU; q (perihelion) < 1.017 AU"
        }
    },
    "is_sentry_object": false
}